{
    "links": {
        "self": "http://www.neowsapp.com/rest/v1/neo/3841183?api_key=iIulBulltgU6a56xZRHN4H3l9WmuAYTsLGpBGhQ2"
    },
    "id": "3841183",
    "neo_reference_id": "3841183",
    "name": "(2019 GU19)",
    "designation": "2019 GU19",
    "nasa_jpl_url": "http://ssd.jpl.nasa.gov/sbdb.cgi?sstr=3841183",
    "absolute_magnitude_h": 25.4,
    "estimated_diameter": {
        "kilometers": {
            "estimated_diameter_min": 0.022108281,
            "estimated_diameter_max": 0.0494356193
        },
        "meters": {
            "estimated_diameter_min": 22.1082810359,
            "estimated_diameter_max": 49.435619262
        },
        "miles": {
            "estimated_diameter_min": 0.0137374447,
            "estimated_diameter_max": 0.0307178602
        },
        "feet": {
            "estimated_diameter_min": 72.5337327539,
            "estimated_diameter_max": 162.1903570994
        }
    },
    "is_potentially_hazardous_asteroid": false,
    "close_approach_data": [
        {
            "close_approach_date": "1974-05-23",
            "close_approach_date_full": "1974-May-23 10:32",
            "epoch_date_close_approach": 138537120000,
            "relative_velocity": {
                "kilometers_per_second": "7.7475475619",
                "kilometers_per_hour": "27891.1712226712",
                "miles_per_hour": "17330.4891411092"
            },
            "miss_distance": {
                "astronomical": "1.2796286493",
                "lunar": "497.7755445777",
                "kilometers": "191429720.326256991",
                "miles": "118948912.4763728358"
            },
            "orbiting_body": "Juptr"
        },
        {
            "close_approach_date": "1980-04-25",
            "close_approach_date_full": "1980-Apr-25 05:22",
            "epoch_date_close_approach": 325488120000,
            "relative_velocity": {
                "kilometers_per_second": "19.144048666",
                "kilometers_per_hour": "68918.5751976871",
                "miles_per_hour": "42823.3224610295"
            },
            "miss_distance": {
                "astronomical": "0.2140555788",
                "lunar": "83.2676201532",
                "kilometers": "32022258.650097156",
                "miles": "19897708.8561505128"
            },
            "orbiting_body": "Earth"
        },
        {
            "close_approach_date": "1986-03-10",
            "close_approach_date_full": "1986-Mar-10 23:31",
            "epoch_date_close_approach": 510881460000,
            "relative_velocity": {
                "kilometers_per_second": "7.1728858028",
                "kilometers_per_hour": "25822.3888900021",
                "miles_per_hour": "16045.0282522349"
            },
            "miss_distance": {
                "astronomical": "1.069955088",
                "lunar": "416.212529232",
                "kilometers": "160063002.16046256",
                "miles": "99458537.588840928"
            },
            "orbiting_body": "Juptr"
        },
        {
            "close_approach_date": "2019-04-02",
            "close_approach_date_full": "2019-Apr-02 06:47",
            "epoch_date_close_approach": 1554187620000,
            "relative_velocity": {
                "kilometers_per_second": "11.8737043579",
                "kilometers_per_hour": "42745.3356882856",
                "miles_per_hour": "26560.2892780905"
            },
            "miss_distance": {
                "astronomical": "0.0482741737",
                "lunar": "18.7786535693",
                "kilometers": "7221713.561530019",
                "miles": "4487364.7252675022"
            },
            "orbiting_body": "Earth"
        }
    ],
    "orbital_data": {
        "orbit_id": "5",
        "orbit_determination_date": "2019-05-02 07:43:34",
        "first_observation_date": "2019-04-13",
        "last_observation_date": "2019-05-02",
        "data_arc_in_days": 19,
        "observations_used": 34,
        "orbit_uncertainty": "8",
        "minimum_orbit_intersection": ".0358699",
        "jupiter_tisserand_invariant": "3.041",
        "epoch_osculation": "2458591.5",
        "eccentricity": ".6487332528684023",
        "semi_major_axis": "2.66423201357534",
        "inclination": "2.947112948405272",
        "ascending_node_longitude": "49.89919085815936",
        "orbital_period": "1588.387609554148",
        "perihelion_distance": ".9358561130124762",
        "perihelion_argument": "102.458969223882",
        "aphelion_distance": "4.392607914138203",
        "perihelion_time": "2458546.926848416998",
        "mean_anomaly": "10.10227886024926",
        "mean_motion": ".2266449308938202",
        "equinox": "J2000",
        "orbit_class": {
            "orbit_class_type": "APO",
            "orbit_class_description": "Near-Earth asteroid orbits which cross the Earth’s orbit similar to that of 1862 Apollo",
            "orbit_class_range": "a (semi-major axis) > 1.0 AU; q (perihelion) < 1.017 AU"
        }
    },
    "is_sentry_object": false
}